[Satellite]
VERSION=1.1
NAME=HINODE (SOLAR-B)
NICKNAME=HINODE (SOLAR-B)
TLE1=1 29479U 06041A   22342.48093648  .00000624  00000+0  12506-3 0  9995
TLE2=2 29479  98.1149 355.4059 0019240  40.8712 319.3930 14.65010390866236
STATUS=0
